{
  "norad_id": 64099,
  "name": "STARLINK-34074",
  "history": [
    {
      "epoch": "2026-03-28T20:38:26.737152",
      "apogee_km": 476.04710714674,
      "perigee_km": 474.4509535402731,
      "latitude_deg": 45.97645524708371,
      "longitude_deg": -47.53695872006938,
      "semi_major_axis_km": 6853.386030343507,
      "eccentricity": 0.00011645,
      "inclination_deg": 53.1582,
      "raan_deg": 298.0017,
      "arg_perigee_deg": 62.6189,
      "mean_anomaly_deg": 297.493,
      "mean_motion_rev_day": 15.30188626
    }
  ]
}